TEST
1 47448U 21006AM  24065.57930781  .00005320  00000-0  25142-3 0  9990
2 47448  97.3591 119.6716 0009214 257.6466 102.3737 15.19784450172272